0 SL-8 DEB
1 21184U 91009AX  13281.36822395  .00000074  00000-0  84070-3 0  1410
2 21184 074.0231 253.7564 0132046 071.5434 097.0073 12.19053043  4353
0 SL-8 DEB
1 21184U 91009AX  13283.42027265 -.00000129  00000-0 -11013-2 0  1422
2 21184 074.0233 251.1823 0132053 068.6265 102.6107 12.19055064  4606
0 SL-8 DEB
1 21184U 91009AX  13286.02173219 -.00000085  00000-0 -67624-3 0  1434
2 21184 074.0238 247.9190 0132099 064.9240 359.3843 12.19054291  4927
0 SL-8 DEB
1 21184U 91009AX  13288.07652512  .00000096  00000-0  10476-2 0  1442
2 21184 074.0243 245.3416 0132102 062.0031 017.0547 12.19052566  5178
0 SL-8 DEB
1 21184U 91009AX  13290.30899499  .00000067  00000-0  77233-3 0  1452
2 21184 074.0247 242.5415 0132156 058.8224 094.4664 12.19053210  5442
0 SL-8 DEB
1 21184U 91009AX  13292.35249692 -.00000087  00000-0 -69772-3 0  1467
2 21184 074.0248 239.9785 0132169 055.9154 062.5666 12.19054850  5693
0 SL-8 DEB
1 21184U 91009AX  13294.79281263 -.00000043  00000-0 -27883-3 0  1477
2 21184 074.0248 236.9181 0132226 052.4426 332.1413 12.19054210  5997
